NORAD_CAT_ID,OBJECT_NAME,OBJECT_TYPE,EPOCH,MEAN_MOTION,ECCENTRICITY,INCLINATION,RA_OF_ASC_NODE,ARG_OF_PERICENTER,MEAN_ANOMALY,BSTAR,MEAN_MOTION_DOT,MEAN_MOTION_DDOT,TLE_LINE0,TLE_LINE1,TLE_LINE2,SEMIMAJOR_AXIS,PERIOD,APOGEE,PERIGEE,DECAYED
51783.0,STARLINK-3628,PAYLOAD,2022-07-29 00:00:00,15.08856562,0.0002355,53.2165,143.4317,53.0172,242.5504,-0.001367,-0.00021989,0.0,0 STARLINK-3628,1 51783U 22017R   22210.00001157 -.00021989  00000-0 -13670-2 0  9997,2 51783  53.2165 143.4317 0002355  53.0172 242.5504 15.08856562 24839,6917.83,95.437,541.3240000000002,538.066,0.0
51783.0,STARLINK-3628,PAYLOAD,2022-07-29 14:00:01,15.08822657,0.000225,53.2169,140.8123,51.9169,173.96099999999996,0.00030273,4.531e-05,0.0,0 STARLINK-3628,1 51783U 22017R   22210.58334491  .00004531  00000-0  30273-3 0  9991,2 51783  53.2169 140.8123 0002250  51.9169 173.9610 15.08822657  1306,6917.933000000001,95.439,541.355,538.242,0.0
51783.0,STARLINK-3628,PAYLOAD,2022-07-29 22:00:00,15.08844098,0.0002333,53.2171,139.3165,54.2049,183.24400000000003,-0.0011369,-0.00018339,0.0,0 STARLINK-3628,1 51783U 22017R   22210.91667824 -.00018339  00000-0 -11369-2 0  9994,2 51783  53.2171 139.3165 0002333  54.2049 183.2440 15.08844098  1301,6917.868,95.437,541.347,538.119,0.0
51783.0,STARLINK-3628,PAYLOAD,2022-07-30 06:00:00,15.08810305,0.0002484999999999,53.2172,137.8215,49.8365,199.2072,0.0030799,0.00049031,0.0,0 STARLINK-3628,1 51783U 22017R   22211.25001157  .00049031  00000-0  30799-2 0  9992,2 51783  53.2172 137.8215 0002485  49.8365 199.2072 15.08810305 25027,6917.971,95.439,541.555,538.117,0.0
51783.0,STARLINK-3628,PAYLOAD,2022-07-30 14:00:01,15.08825967,0.0002348,53.2174,136.3234,53.9527,206.6783,0.0012982,0.00020426,0.0,0 STARLINK-3628,1 51783U 22017R   22211.58334491  .00020426  00000-0  12982-2 0  9999,2 51783  53.2174 136.3234 0002348  53.9527 206.6783 15.08825967  1305,6917.9230000000025,95.438,541.413,538.164,0.0
51783.0,STARLINK-3628,PAYLOAD,2022-07-30 22:00:00,15.08858914,0.0002417,53.2175,134.8276,55.6147,216.6008,-0.0012577,-0.0002026,0.0,0 STARLINK-3628,1 51783U 22017R   22211.91667824 -.00020260  00000-0 -12577-2 0  9993,2 51783  53.2175 134.8276 0002417  55.6147 216.6008 15.08858914  1308,6917.823,95.436,541.36,538.016,0.0
51783.0,STARLINK-3628,PAYLOAD,2022-07-31 14:00:01,15.08816689,0.0002326,53.2176,131.8344,55.2555,240.178,0.00096614,0.00015112,0.0,0 STARLINK-3628,1 51783U 22017R   22212.58334491  .00015112  00000-0  96614-3 0  9991,2 51783  53.2176 131.8344 0002326  55.2555 240.1780 15.08816689  1302,6917.9519999999975,95.439,541.4259999999998,538.2080000000002,0.0
51783.0,STARLINK-3628,PAYLOAD,2022-07-31 22:00:00,15.08845656,0.0002369,53.2177,130.3388,55.8029,251.2017,-0.0014504,-0.00023302,0.0,0 STARLINK-3628,1 51783U 22017R   22212.91667824 -.00023302  00000-0 -14504-2 0  9996,2 51783  53.2177 130.3388 0002369  55.8029 251.2017 15.08845656  1306,6917.863,95.437,541.367,538.089,0.0
51783.0,STARLINK-3628,PAYLOAD,2022-08-01 06:00:00,15.08816587,0.0002473,53.2173,128.8435,51.9857,266.6101,0.0022936999999999,0.00036383,0.0,0 STARLINK-3628,1 51783U 22017R   22213.25001157  .00036383  00000-0  22937-2 0  9995,2 51783  53.2173 128.8435 0002473  51.9857 266.6101 15.08816587 25322,6917.9519999999975,95.439,541.528,538.106,0.0
51783.0,STARLINK-3628,PAYLOAD,2022-08-01 14:00:01,15.08817878,0.0002315,53.2174,127.3455,57.668,272.5217,0.0023836,0.00037829,0.0,0 STARLINK-3628,1 51783U 22017R   22213.58334491  .00037829  00000-0  23836-2 0  9996,2 51783  53.2174 127.3455 0002315  57.6680 272.5217 15.08817878  1301,6917.948,95.439,541.415,538.212,0.0
51783.0,STARLINK-3628,PAYLOAD,2022-08-01 22:00:00,15.08858885,0.0002391,53.2174,125.8499,57.7197,284.0509,-0.0016715,-0.00026807,0.0,0 STARLINK-3628,1 51783U 22017R   22213.91667824 -.00026807  00000-0 -16715-2 0  9996,2 51783  53.2174 125.8499 0002391  57.7197 284.0509 15.08858885  1305,6917.823,95.436,541.342,538.034,0.0
51783.0,STARLINK-3628,PAYLOAD,2022-08-02 14:00:01,15.08816258,0.0002247,53.2168,122.8563,59.6832,305.305,0.0010626,0.00016653,0.0,0 STARLINK-3628,1 51783U 22017R   22214.58334491  .00016653  00000-0  10626-2 0  9992,2 51783  53.2168 122.8563 0002247  59.6832 305.3050 15.08816258  1300,6917.953,95.439,541.372,538.263,0.0
51783.0,STARLINK-3628,PAYLOAD,2022-08-03 14:00:01,15.08802732,0.0002278999999999,53.2168,118.3661,61.8307,337.9036,0.0036561999999999,0.00058324,0.0,0 STARLINK-3628,1 51783U 22017R   22215.58334491  .00058324  00000-0  36562-2 0  9991,2 51783  53.2168 118.3661 0002279  61.8307 337.9036 15.08802732 25679,6917.994000000002,95.44,541.436,538.283,0.0
51783.0,STARLINK-3628,PAYLOAD,2022-08-03 22:00:01,15.088515300000005,0.000239,53.2162,116.8719,60.7689,350.603,-0.0018161999999999,-0.00029087,0.0,0 STARLINK-3628,1 51783U 22017R   22215.91668981 -.00029087  00000-0 -18162-2 0  9994,2 51783  53.2162 116.8719 0002390  60.7689 350.6030 15.08851530  1305,6917.845,95.437,541.364,538.057,0.0
51783.0,STARLINK-3628,PAYLOAD,2022-08-04 06:00:00,15.08835787,0.0002438,53.2158,115.376,57.3858,5.519,0.00096777,0.00015146,0.0,0 STARLINK-3628,1 51783U 22017R   22216.25001157  .00015146  00000-0  96777-3 0  9996,2 51783  53.2158 115.3760 0002438  57.3858   5.5190 15.08835787 25779,6917.893,95.438,541.445,538.072,0.0
51783.0,STARLINK-3628,PAYLOAD,2022-08-04 14:00:01,15.08821386,0.0002326,53.2159,113.8778,63.6468,10.8637,0.0028988,0.00046126,0.0,0 STARLINK-3628,1 51783U 22017R   22216.58334491  .00046126  00000-0  28988-2 0  9992,2 51783  53.2159 113.8778 0002326  63.6468  10.8637 15.08821386  1303,6917.937,95.439,541.411,538.193,0.0
51783.0,STARLINK-3628,PAYLOAD,2022-08-04 22:00:00,15.08862171,0.0002466,53.216,112.3827,62.1836,23.9185,-0.0016848,-0.0002702,0.0,0 STARLINK-3628,1 51783U 22017R   22216.91667824 -.00027020  00000-0 -16848-2 0  9994,2 51783  53.2160 112.3827 0002466  62.1836  23.9185 15.08862171  1302,6917.813,95.436,541.384,537.972,0.0
51783.0,STARLINK-3628,PAYLOAD,2022-08-05 06:00:02,15.08864881,0.0002461999999999,53.2158,110.8865,58.3705,39.4025,-0.002236,-0.00035724,0.0,0 STARLINK-3628,1 51783U 22017R   22217.25002315 -.00035724  00000-0 -22360-2 0  9996,2 51783  53.2158 110.8865 0002462  58.3705  39.4025 15.08864881 25921,6917.804,95.436,541.373,537.966,0.0
51783.0,STARLINK-3628,PAYLOAD,2022-08-05 14:00:01,15.08810541,0.0002289,53.2161,109.3883,63.5697,45.8264,0.0029358,0.00046708,0.0,0 STARLINK-3628,1 51783U 22017R   22217.58335648  .00046708  00000-0  29358-2 0  9996,2 51783  53.2161 109.3883 0002289  63.5697  45.8264 15.08810541  1309,6917.97,95.439,541.419,538.252,0.0
51783.0,STARLINK-3628,PAYLOAD,2022-08-05 22:00:00,15.08848097,0.0002445,53.2163,107.8933,61.7581,59.1527,-0.0013892,-0.00022335,0.0,0 STARLINK-3628,1 51783U 22017R   22217.91667824 -.00022335  00000-0 -13892-2 0  9995,2 51783  53.2163 107.8933 0002445  61.7581  59.1527 15.08848097  1303,6917.856,95.437,541.4119999999998,538.029,0.0
51783.0,STARLINK-3628,PAYLOAD,2022-08-06 00:00:02,15.08835391,0.0002483,53.2163,107.5196,60.4449,153.4313,0.00017351,2.474e-05,0.0,0 STARLINK-3628,1 51783U 22017R   22218.00002315  .00002474  00000-0  17351-3 0  9999,2 51783  53.2163 107.5196 0002483  60.4449 153.4313 15.08835391 26044,6917.894,95.438,541.477,538.0419999999998,0.0
51783.0,STARLINK-3628,PAYLOAD,2022-08-06 14:00:01,15.08816136,0.0002292,53.2167,104.8991,63.9738,80.1446,0.0015761,0.00024869,0.0,0 STARLINK-3628,1 51783U 22017R   22218.58334491  .00024869  00000-0  15761-2 0  9999,2 51783  53.2167 104.8991 0002292  63.9738  80.1446 15.08816136  1309,6917.953,95.439,541.404,538.2330000000002,0.0
51783.0,STARLINK-3628,PAYLOAD,2022-08-06 21:18:47,15.08840589,0.0002426,53.2195,103.5313,64.4648,295.6595,-3.9262e-05,-9.13e-06,0.0,0 STARLINK-3628,1 51783U 22017R   22218.88805415 -.00000913  00000-0 -39262-4 0  9991,2 51783  53.2195 103.5313 0002426  64.4648 295.6595 15.08840589 24536,6917.879,95.438,541.422,538.065,0.0
51783.0,STARLINK-3628,PAYLOAD,2022-08-07 06:00:00,15.08840538,0.0002443,53.2171,101.908,59.7091,107.5638,-0.00041137,-6.829999999999999e-05,0.0,0 STARLINK-3628,1 51783U 22017R   22219.25001157 -.00006830  00000-0 -41137-3 0  9991,2 51783  53.2171 101.9080 0002443  59.7091 107.5638 15.08840538 26233,6917.879,95.438,541.434,538.054,0.0
51783.0,STARLINK-3628,PAYLOAD,2022-08-07 14:00:01,15.08823455,0.0002336999999999,53.2175,100.4102,65.5064,113.3673,0.0026173999999999,0.00041596,0.0,0 STARLINK-3628,1 51783U 22017R   22219.58334491  .00041596  00000-0  26174-2 0  9996,2 51783  53.2175 100.4102 0002337  65.5064 113.3673 15.08823455  1307,6917.931,95.439,541.413,538.179,0.0
51783.0,STARLINK-3628,PAYLOAD,2022-08-07 21:09:34,15.08840038,0.0002400999999999,53.2193,99.0716,65.2275,294.8967,6.374e-06,-1.87e-06,0.0,0 STARLINK-3628,1 51783U 22017R   22219.88165186 -.00000187  00000-0  63740-5 0  9997,2 51783  53.2193  99.0716 0002401  65.2275 294.8967 15.08840038 24687,6917.88,95.438,541.406,538.0840000000002,0.0
51783.0,STARLINK-3628,PAYLOAD,2022-08-08 06:00:00,15.08855891,0.0002364,53.2176,97.419,60.5999,141.481,-0.0016454,-0.00026392,0.0,0 STARLINK-3628,1 51783U 22017R   22220.25001157 -.00026392  00000-0 -16454-2 0  9991,2 51783  53.2176  97.4190 0002364  60.5999 141.4810 15.08855891 26381,6917.831999999999,95.437,541.332,538.061,0.0
51783.0,STARLINK-3628,PAYLOAD,2022-08-08 14:00:01,15.08831552,0.0002217,53.2179,95.9213,66.3123,147.4437,0.0030375999999999,0.00048377,0.0,0 STARLINK-3628,1 51783U 22017R   22220.58335648  .00048377  00000-0  30376-2 0  9996,2 51783  53.2179  95.9213 0002217  66.3123 147.4437 15.08831552  1307,6917.906,95.438,541.305,538.238,0.0
51783.0,STARLINK-3628,PAYLOAD,2022-08-08 22:00:00,15.08876489,0.0002281,53.218,94.4267,62.2488,163.0492,-0.0032325,-0.0005142,0.0,0 STARLINK-3628,1 51783U 22017R   22220.91667824 -.00051420  00000-0 -32325-2 0  9998,2 51783  53.2180  94.4267 0002281  62.2488 163.0492 15.08876489  1305,6917.769,95.435,541.212,538.056,0.0
